NORAD_CAT_ID,OBJECT_NAME,OBJECT_TYPE,EPOCH,MEAN_MOTION,ECCENTRICITY,INCLINATION,RA_OF_ASC_NODE,ARG_OF_PERICENTER,MEAN_ANOMALY,BSTAR,MEAN_MOTION_DOT,MEAN_MOTION_DDOT,TLE_LINE0,TLE_LINE1,TLE_LINE2,SEMIMAJOR_AXIS,PERIOD,APOGEE,PERIGEE,DECAYED
52002.0,STARLINK-3668,PAYLOAD,2023-01-24 04:03:40,15.0884249,0.0001094999999999,53.2151,99.1237,85.75,274.3617,0.00058631,9.056e-05,0.0,0 STARLINK-3668,1 52002U 22025AY  23024.16921584  .00009056  00000-0  58631-3 0  9993,2 52002  53.2151  99.1237 0001095  85.7500 274.3617 15.08842490 50252,6917.8730000000005,95.437,540.495,538.98,0.0
52002.0,STARLINK-3668,PAYLOAD,2023-01-25 03:54:27,15.0883273,0.00013,53.2155,94.6637,116.249,243.8635,0.00010462,1.377e-05,0.0,0 STARLINK-3668,1 52002U 22025AY  23025.16282061  .00001377  00000-0  10462-3 0  9992,2 52002  53.2155  94.6637 0001300 116.2490 243.8635 15.08832730 50401,6917.903,95.438,540.6669999999999,538.868,0.0
52002.0,STARLINK-3668,PAYLOAD,2023-01-25 11:51:23,15.08835199,0.0001105999999999,53.2159,93.1755,107.5942,252.5171,5.9672e-05,6.62e-06,0.0,0 STARLINK-3668,1 52002U 22025AY  23025.49402314  .00000662  00000-0  59672-4 0  9996,2 52002  53.2159  93.1755 0001106 107.5942 252.5171 15.08835199 48949,6917.895,95.438,540.525,538.995,0.0
52002.0,STARLINK-3668,PAYLOAD,2023-01-26 11:42:10,15.08857598,0.0001071,53.2156,88.715,101.4071,258.7041,0.0006111,9.456e-05,0.0,0 STARLINK-3668,1 52002U 22025AY  23026.48761745  .00009456  00000-0  61110-3 0  9991,2 52002  53.2156  88.7150 0001071 101.4071 258.7041 15.08857598 50609,6917.826999999999,95.436,540.432,538.951,0.0
52002.0,STARLINK-3668,PAYLOAD,2023-01-27 03:36:01,15.08848468,0.0001588999999999,53.2155,85.7413,88.4222,271.6952,0.00021084,3.07e-05,0.0,0 STARLINK-3668,1 52002U 22025AY  23027.15001877  .00003070  00000-0  21084-3 0  9991,2 52002  53.2155  85.7413 0001589  88.4222 271.6952 15.08848468 50705,6917.855,95.437,540.819,538.62,0.0
52002.0,STARLINK-3668,PAYLOAD,2023-01-27 11:32:57,15.08848847,0.0001327,53.2153,84.2541,90.0232,270.0912,0.00018693,2.689e-05,0.0,0 STARLINK-3668,1 52002U 22025AY  23027.48121663  .00002689  00000-0  18693-3 0  9990,2 52002  53.2153  84.2541 0001327  90.0232 270.0912 15.08848847 49246,6917.853,95.437,540.636,538.8,0.0
52002.0,STARLINK-3668,PAYLOAD,2023-01-27 21:05:15,15.0884532,0.0001471,53.2147,82.4705,85.8162,274.2998,8.8261e-05,1.117e-05,0.0,0 STARLINK-3668,1 52002U 22025AY  23027.87865684  .00001117  00000-0  88261-4 0  9995,2 52002  53.2147  82.4705 0001471  85.8162 274.2998 15.08845320 49305,6917.8640000000005,95.437,540.747,538.712,0.0
52002.0,STARLINK-3668,PAYLOAD,2023-01-28 03:26:48,15.08842019,0.0001571999999999,53.2132,81.2806,93.8359,266.2813,3.2208e-05,2.25e-06,0.0,0 STARLINK-3668,1 52002U 22025AY  23028.14361751  .00000225  00000-0  32208-4 0  9991,2 52002  53.2132  81.2806 0001572  93.8359 266.2813 15.08842019 50858,6917.874,95.437,540.827,538.6519999999999,0.0
52002.0,STARLINK-3668,PAYLOAD,2023-01-28 12:59:07,15.08843386,0.0001293,53.215,79.4947,105.9656,254.1479,-5.1096e-05,-1.101e-05,0.0,0 STARLINK-3668,1 52002U 22025AY  23028.54105660 -.00001101  00000-0 -51096-4 0  9992,2 52002  53.2150  79.4947 0001293 105.9656 254.1479 15.08843386 49409,6917.87,95.437,540.63,538.841,0.0
52002.0,STARLINK-3668,PAYLOAD,2023-01-28 20:56:03,15.08839006,0.0001297,53.215,78.0074,115.0267,245.086,-8.1325e-05,-1.582e-05,0.0,0 STARLINK-3668,1 52002U 22025AY  23028.87225863 -.00001582  00000-0 -81325-4 0  9997,2 52002  53.2150  78.0074 0001297 115.0267 245.0860 15.08839006 49451,6917.883,95.438,540.646,538.851,0.0
52002.0,STARLINK-3668,PAYLOAD,2023-01-29 03:17:35,15.08837469,0.0001363,53.2153,76.8201,92.2617,267.8531,7.1182e-05,8.45e-06,0.0,0 STARLINK-3668,1 52002U 22025AY  23029.13722161  .00000845  00000-0  71182-4 0  9999,2 52002  53.2153  76.8201 0001363  92.2617 267.8531 15.08837469 51003,6917.888,95.438,540.696,538.81,0.0
52002.0,STARLINK-3668,PAYLOAD,2023-01-29 12:49:54,15.08842462,0.0001255,53.2156,75.0349,94.9453,265.1682,5.2503e-05,5.48e-06,0.0,0 STARLINK-3668,1 52002U 22025AY  23029.53465847  .00000548  00000-0  52503-4 0  9994,2 52002  53.2156  75.0349 0001255  94.9453 265.1682 15.08842462 49551,6917.873,95.437,540.606,538.87,0.0
52002.0,STARLINK-3668,PAYLOAD,2023-01-30 03:08:23,15.08822084,0.0001331,53.2156,72.3583,103.1151,256.9989,0.00024196,3.563e-05,0.0,0 STARLINK-3668,1 52002U 22025AY  23030.13082831  .00003563  00000-0  24196-3 0  9996,2 52002  53.2156  72.3583 0001331 103.1151 256.9989 15.08822084 51159,6917.935,95.439,540.721,538.879,0.0
52002.0,STARLINK-3668,PAYLOAD,2023-01-30 11:05:18,15.08841123,0.0001236,53.2162,70.8717,96.6971,263.4162,9.0938e-05,1.16e-05,0.0,0 STARLINK-3668,1 52002U 22025AY  23030.46202013  .00001160  00000-0  90938-4 0  9997,2 52002  53.2162  70.8717 0001236  96.6971 263.4162 15.08841123 51205,6917.877,95.437,540.597,538.887,0.0
52002.0,STARLINK-3668,PAYLOAD,2023-01-30 12:40:41,15.08840871,0.0001243,53.2162,70.5745,95.3669,264.7465,8.4398e-05,1.056e-05,0.0,0 STARLINK-3668,1 52002U 22025AY  23030.52826035  .00001056  00000-0  84398-4 0  9997,2 52002  53.2162  70.5745 0001243  95.3669 264.7465 15.08840871 49702,6917.878,95.437,540.603,538.883,0.0
52002.0,STARLINK-3668,PAYLOAD,2023-01-30 19:02:14,15.0883741,0.0001319,53.2176,69.3843,85.7898,274.3245,4.4742e-05,4.24e-06,0.0,0 STARLINK-3668,1 52002U 22025AY  23030.79322449  .00000424  00000-0  44742-4 0  9993,2 52002  53.2176  69.3843 0001319  85.7898 274.3245 15.08837410 49745,6917.888,95.438,540.666,538.841,0.0
52002.0,STARLINK-3668,PAYLOAD,2023-01-31 02:59:10,15.08834576,0.0001164,53.216,67.8987,95.1064,265.0061,5.7733e-05,6.31e-06,0.0,0 STARLINK-3668,1 52002U 22025AY  23031.12442639  .00000631  00000-0  57733-4 0  9999,2 52002  53.2160  67.8987 0001164  95.1064 265.0061 15.08834576 51306,6917.897,95.438,540.567,538.957,0.0
52002.0,STARLINK-3668,PAYLOAD,2023-01-31 12:31:28,15.08843846,0.0001241,53.2168,66.1143,97.1011,263.0122,9.2664e-05,1.187e-05,0.0,0 STARLINK-3668,1 52002U 22025AY  23031.52186017  .00001187  00000-0  92664-4 0  9997,2 52002  53.2168  66.1143 0001241  97.1011 263.0122 15.08843846 49853,6917.869,95.437,540.592,538.875,0.0
52002.0,STARLINK-3668,PAYLOAD,2023-01-31 18:53:01,15.08841276,9.36e-05,53.2158,64.9239,95.2333,264.8766,9.5639e-05,1.235e-05,0.0,0 STARLINK-3668,1 52002U 22025AY  23031.78682046  .00001235  00000-0  95639-4 0  9997,2 52002  53.2158  64.9239 0000936  95.2333 264.8766 15.08841276 51402,6917.876,95.437,540.389,539.094,0.0
52002.0,STARLINK-3668,PAYLOAD,2023-02-01 02:49:57,15.08837199,0.0001314,53.217,63.4382,98.9579,261.1562,2.9908e-05,1.88e-06,0.0,0 STARLINK-3668,1 52002U 22025AY  23032.11802688  .00000188  00000-0  29908-4 0  9993,2 52002  53.2170  63.4382 0001314  98.9579 261.1562 15.08837199 51450,6917.889,95.438,540.663,538.845,0.0
52002.0,STARLINK-3668,PAYLOAD,2023-02-01 12:22:15,15.08846279,0.0001406,53.2178,61.6533,105.5361,254.5786,1.1085e-05,-1.11e-06,0.0,0 STARLINK-3668,1 52002U 22025AY  23032.51546053 -.00000111  00000-0  11085-4 0  9992,2 52002  53.2178  61.6533 0001406 105.5361 254.5786 15.08846279 50005,6917.861,95.437,540.699,538.754,0.0
52002.0,STARLINK-3668,PAYLOAD,2023-02-02 09:02:17,15.0883942,0.0001444,53.2172,57.7881,90.7076,269.4082,2.1041e-05,4.7e-07,0.0,0 STARLINK-3668,1 52002U 22025AY  23033.37658842  .00000047  00000-0  21041-4 0  9997,2 52002  53.2172  57.7881 0001444  90.7076 269.4082 15.08839420 50139,6917.882,95.438,540.746,538.748,0.0
52002.0,STARLINK-3668,PAYLOAD,2023-02-03 08:53:03,15.08846145,0.0001419,53.2173,53.3276,90.2977,269.8177,9.6025e-05,1.241e-05,0.0,0 STARLINK-3668,1 52002U 22025AY  23034.37018332  .00001241  00000-0  96025-4 0  9993,2 52002  53.2173  53.3276 0001419  90.2977 269.8177 15.08846145 50284,6917.862,95.437,540.708,538.745,0.0
52002.0,STARLINK-3668,PAYLOAD,2023-02-04 07:08:28,15.0884039,0.0001526,53.2178,49.165,91.3736,268.7431,8.5761e-05,1.077e-05,0.0,0 STARLINK-3668,1 52002U 22025AY  23035.29754872  .00001077  00000-0  85761-4 0  9993,2 52002  53.2178  49.1650 0001526  91.3736 268.7431 15.08840390 51932,6917.879,95.438,540.8,538.689,0.0
52002.0,STARLINK-3668,PAYLOAD,2023-02-04 18:16:09,15.08844434,0.0001413,53.2187,47.0872,64.1019,296.0119,0.00011829,1.595e-05,0.0,0 STARLINK-3668,1 52002U 22025AY  23035.76122545  .00001595  00000-0  11829-3 0  9999,2 52002  53.2187  47.0872 0001413  64.1019 296.0119 15.08844434 50492,6917.867,95.437,540.709,538.754,0.0
52002.0,STARLINK-3668,PAYLOAD,2023-02-05 06:59:15,15.0884161,0.0001646,53.2172,44.7062,74.0167,286.1006,5.8676e-05,6.46e-06,0.0,0 STARLINK-3668,1 52002U 22025AY  23036.29114895  .00000646  00000-0  58676-4 0  9995,2 52002  53.2172  44.7062 0001646  74.0167 286.1006 15.08841610 50570,6917.875,95.437,540.879,538.602,0.0
52002.0,STARLINK-3668,PAYLOAD,2023-02-06 03:39:15,15.08840472,0.0001407,53.2166,40.84,75.0748,285.04,9.8951e-05,1.287e-05,0.0,0 STARLINK-3668,1 52002U 22025AY  23037.15226782  .00001287  00000-0  98951-4 0  9992,2 52002  53.2166  40.8400 0001407  75.0748 285.0400 15.08840472 52211,6917.879,95.438,540.717,538.771,0.0
52002.0,STARLINK-3668,PAYLOAD,2023-02-06 06:50:01,15.08845248,0.0001311,53.2168,40.2447,76.5769,283.537,0.00011354,1.52e-05,0.0,0 STARLINK-3668,1 52002U 22025AY  23037.28474528  .00001520  00000-0  11354-3 0  9990,2 52002  53.2168  40.2447 0001311  76.5769 283.5370 15.08845248 50720,6917.864,95.437,540.636,538.822,0.0
52002.0,STARLINK-3668,PAYLOAD,2023-02-07 08:16:11,15.08849056,0.0001541,53.2183,35.4879,96.5112,263.6056,0.00014733,2.058e-05,0.0,0 STARLINK-3668,1 52002U 22025AY  23038.34458146  .00002058  00000-0  14733-3 0  9997,2 52002  53.2183  35.4879 0001541  96.5112 263.6056 15.08849056 52397,6917.853,95.437,540.784,538.652,0.0
52002.0,STARLINK-3668,PAYLOAD,2023-02-08 09:42:21,15.08849968,0.0001306,53.217,30.7271,102.3482,257.7656,0.00018265,2.621e-05,0.0,0 STARLINK-3668,1 52002U 22025AY  23039.40442094  .00002621  00000-0  18265-3 0  9990,2 52002  53.2170  30.7271 0001306 102.3482 257.7656 15.08849968 52552,6917.85,95.437,540.618,538.811,0.0
